ICEYE-X7                
1 46496U 20068L   26188.85026819  .00007862  00000+0  25718-3 0  9997
2 46496  97.7502 156.3226 0005386 245.9499 114.1178 15.31988741317955
ICEYE-X6                
1 46497U 20068M   26188.87439507  .00002660  00000+0  19404-3 0  9998
2 46497  98.0975 183.5359 0007779  30.8521 329.3160 15.04635640316348
ICEYE-X65               
1 66300U 25248H   26187.95825506  .00002793  00000+0  19511-3 0  9990
2 66300  45.4051  30.2151 0004667 152.2696 207.8436 15.07893453 38503
ICEYE-X66               
1 66301U 25248J   26187.96277053  .00003178  00000+0  21261-3 0  9993
2 66301  45.4020  29.3585 0004305 147.7574 212.3572 15.09141129 38491
ICEYE-X67               
1 66302U 25248K   26187.98735860  .00002603  00000+0  17712-3 0  9999
2 66302  45.4057  28.8035 0005862 148.7145 211.4087 15.09123634 38515
ICEYE-X60               
1 66753U 25276CR  26187.72398211  .00003684  00000+0  22322-3 0  9990
2 66753  97.4205 259.8267 0000969 312.9978  47.1171 15.11178480 33315
ICEYE-X61               
1 66754U 25276CS  26188.72001111  .00002024  00000+0  10117-3 0  9998
2 66754  97.4191 261.8276 0001598 257.1566 102.9490 15.18580724 33538
ICEYE-X62               
1 66755U 25276CT  26188.73776508  .00001813  00000+0  11502-3 0  9993
2 66755  97.4193 260.3026 0000886 326.4774  33.6400 15.10114108 33439
ICEYE-X63               
1 67372U 26004K   26188.65454286  .00000801  00000+0  92418-4 0  9998
2 67372  97.8009 186.9744 0005762  70.0683 290.1154 14.88339435 26348
ICEYE-X64               
1 67373U 26004L   26188.23068828  .00001204  00000+0  13715-3 0  9996
2 67373  97.8021 186.4794 0007562  75.0491 285.1563 14.87973564 26271
